GPS BIIA-23 (PRN 18)    
1 22877U 93068A   18353.17601399 -.00000049  00000-0  00000+0 0  9991
2 22877  54.5558  75.9195 0147447  78.1681 335.8811  2.00570751184250
GPS BIIR-2  (PRN 13)    
1 24876U 97035A   18354.99349801  .00000112  00000-0  00000+0 0  9998
2 24876  55.4697 205.4441 0034777  79.3871 281.0938  2.00564271156895
GPS BIIR-3  (PRN 11)    
1 25933U 99055A   18355.59075873 -.00000054  00000-0  00000+0 0  9995
2 25933  52.0136  53.5371 0164639 106.2717 252.6716  2.00562730140726
GPS BIIR-4  (PRN 20)    
1 26360U 00025A   18354.59363569  .00000038  00000-0  00000-0 0  9992
2 26360  53.2654 131.8895 0043001 128.3494 276.7382  2.00563132136409
GPS BIIR-5  (PRN 28)    
1 26407U 00040A   18355.07111677 -.00000047  00000-0  00000+0 0  9996
2 26407  56.3750 323.5780 0197875 274.6799  91.2227  2.00561265135083
GPS BIIR-6  (PRN 14)    
1 26605U 00071A   18354.63362154  .00000114  00000-0  00000-0 0  9994
2 26605  55.0436 202.9765 0102100 248.8651  71.0355  2.00565478132670
GPS BIIR-8  (PRN 16)    
1 27663U 03005A   18354.65369704 -.00000046  00000-0  00000-0 0  9994
2 27663  56.4374 323.3611 0101982  28.7412 154.7413  2.00555438116442
GPS BIIR-9  (PRN 21)    
1 27704U 03010A   18355.63259230 -.00000043  00000-0  00000+0 0  9993
2 27704  54.2306  75.3453 0248566 273.9667 222.1779  2.00575809115250
GPS BIIR-10 (PRN 22)    
1 28129U 03058A   18355.18865665  .00000039  00000-0  00000+0 0  9996
2 28129  53.0782 134.6837 0072444 276.8678  82.2779  2.00568356109949
GPS BIIR-11 (PRN 19)    
1 28190U 04009A   18355.44077105 -.00000046  00000-0  00000+0 0  9993
2 28190  56.2308  24.1297 0091503  75.5154 106.7509  2.00571019108121
GPS BIIR-12 (PRN 23)    
1 28361U 04023A   18355.24615461  .00000112  00000-0  00000+0 0  9993
2 28361  54.0515 197.5023 0128078 228.1070  86.6224  2.00563055106208
GPS BIIR-13 (PRN 02)    
1 28474U 04045A   18355.45207419 -.00000043  00000-0  00000+0 0  9999
2 28474  54.5934  75.0382 0188465 257.0001 210.1494  2.00570070103577
GPS BIIRM-1 (PRN 17)    
1 28874U 05038A   18355.26925462 -.00000045  00000-0  00000+0 0  9992
2 28874  56.3630  21.4687 0131931 260.1404 183.5516  2.00565321 96971
GPS BIIRM-2 (PRN 31)    
1 29486U 06042A   18355.52155791  .00000023  00000-0  00000+0 0  9992
2 29486  55.0815 260.1624 0091410 355.5787 186.4835  2.00548439 89693
GPS BIIRM-3 (PRN 12)    
1 29601U 06052A   18354.21187975 -.00000046  00000-0  00000+0 0  9992
2 29601  56.4156 322.2950 0069930  57.4275 303.2430  2.00557593 88587
GPS BIIRM-4 (PRN 15)    
1 32260U 07047A   18354.52824547  .00000115  00000-0  00000-0 0  9996
2 32260  53.1754 193.3842 0109838  41.9561 318.9539  2.00570246 81985
GPS BIIRM-5 (PRN 29)    
1 32384U 07062A   18355.56223847 -.00000045  00000-0  00000+0 0  9993
2 32384  56.4424  22.0816 0003799  90.8172  72.9867  2.00574177 80720
GPS BIIRM-6 (PRN 07)    
1 32711U 08012A   18354.93428199  .00000021  00000-0  00000+0 0  9993
2 32711  54.8184 259.4183 0122535 218.7614 140.4153  2.00569061 78894
GPS BIIRM-8 (PRN 05)    
1 35752U 09043A   18355.36467514  .00000044  00000-0  00000+0 0  9993
2 35752  54.3717 137.1160 0054333  39.7350 296.7932  2.00572277 68481
GPS BIIF-1  (PRN 25)    
1 36585U 10022A   18355.49589848 -.00000047  00000-0  00000+0 0  9990
2 36585  55.6990 318.6719 0077088  47.2347 133.7569  2.00551150 62736
GPS BIIF-2  (PRN 01)    
1 37753U 11036A   18353.61605115 -.00000044  00000-0  00000+0 0  9999
2 37753  55.7896  78.8618 0080658  38.5095 306.7836  2.00565090 54382
GPS BIIF-3  (PRN 24)    
1 38833U 12053A   18355.11427695  .00000028  00000-0  00000+0 0  9992
2 38833  53.8509 255.7856 0077916  31.1584 329.3687  2.00555708 45488
GPS BIIF-4  (PRN 27)    
1 39166U 13023A   18352.98519900 -.00000048  00000-0  00000+0 0  9996
2 39166  56.0524  18.3941 0062161  22.3988 337.9327  2.00560671 40974
GPS BIIF-5  (PRN 30)    
1 39533U 14008A   18354.97703678  .00000017  00000-0  00000+0 0  9991
2 39533  53.9888 261.1658 0036116 191.6874 168.2867  2.00566057 35386
GPS BIIF-6  (PRN 06)    
1 39741U 14026A   18354.75971705 -.00000041  00000-0  00000+0 0  9994
2 39741  55.7721  78.3408 0014594 286.9621  72.8994  2.00553477 33659
GPS BIIF-7  (PRN 09)    
1 40105U 14045A   18354.84669284  .00000115  00000-0  00000+0 0  9998
2 40105  54.5780 197.7246 0012294  97.5827 262.6360  2.00552297 32106
GPS BIIF-8  (PRN 03)    
1 40294U 14068A   18354.72046642  .00000053  00000-0  00000-0 0  9998
2 40294  55.1233 138.5555 0017363  34.3812 325.7054  2.00569970 30347
GPS BIIF-9  (PRN 26)    
1 40534U 15013A   18354.36188224 -.00000049  00000-0  00000-0 0  9995
2 40534  54.6339 317.2460 0033908 359.8555   0.1379  2.00552384 26955
GPS BIIF-10  (PRN 08)   
1 40730U 15033A   18355.01492668 -.00000047  00000-0  00000+0 0  9995
2 40730  55.5804  17.7344 0040878 333.9271  25.9269  2.00564218 25158
GPS BIIF-11  (PRN 10)   
1 41019U 15062A   18354.56905233  .00000054  00000-0  00000+0 0  9991
2 41019  55.1263 138.3710 0042094 202.2775 157.5155  2.00564509 22965
GPS BIIF-12  (PRN 32)   
1 41328U 16007A   18354.66098632  .00000117  00000-0  00000+0 0  9991
2 41328  54.8248 198.0735 0025049 213.8377 146.0819  2.00555987 21020
